ONEWEB-0620             
1 55161U 23004X   25202.62060223 -.00000390  00000+0 -11354-2 0  9998
2 55161  87.8819  86.9832 0001733  70.5851 289.5464 13.11415458122508
ONEWEB-0621             
1 55162U 23004Y   25202.41883425 -.00000174  00000+0 -52550-3 0  9997
2 55162  87.8823  86.9795 0001687  85.4967 274.6354 13.11417981122453
ONEWEB-0622             
1 55163U 23004Z   25202.42392819  .00000140  00000+0  35890-3 0  9990
2 55163  87.8818  87.0021 0001013  74.2049 285.9190 13.11417946122445
ONEWEB-0623             
1 55164U 23004AA  25202.61988261  .00000033  00000+0  52790-4 0  9994
2 55164  87.9042  71.6941 0001166  99.9292 260.1972 13.17648827124051
ONEWEB-0624             
1 55165U 23004AB  25202.59944652  .00000113  00000+0  27638-3 0  9999
2 55165  87.8857  56.3848 0001719  85.4688 274.6637 13.12941177124691
ONEWEB-0625             
1 55166U 23004AC  25202.60973996  .00000028  00000+0  37735-4 0  9990
2 55166  87.9044  71.6931 0001939  82.5400 277.5951 13.17647694124040
ONEWEB-0626             
1 55167U 23004AD  25202.59962972  .00000862  00000+0  21872-2 0  9990
2 55167  87.9045  71.6937 0001895  67.3966 292.7366 13.17645404124043
ONEWEB-0627             
1 55168U 23004AE  25202.36000990  .00000005  00000+0 -21590-4 0  9998
2 55168  87.9042  71.7432 0001193  88.2082 271.9186 13.17647735124019
